FENGYUN 1C DEB          
1 31302U 99025BPL 26116.70709641  .00003410  00000+0  13757-2 0  9996
2 31302  99.4009 174.0927 0027016  33.7540  96.0644 14.28487260982842
FENGYUN 1C DEB          
1 31303U 99025BPM 26116.79855286  .00000106  00000+0  82159-4 0  9996
2 31303  98.6965 133.8086 0012075 129.6106 230.6134 14.11086677982238
FENGYUN 1C DEB          
1 31311U 99025BPP 26116.80304611  .00004038  00000+0  15491-2 0  9999
2 31311  98.8425 205.4297 0018371  54.8003  67.9979 14.30992068981520
FENGYUN 1C DEB          
1 31312U 99025BPQ 26115.94617280  .00000223  00000+0  17456-3 0  9999
2 31312  98.8727 102.7674 0057241 222.1216 196.6607 14.01107069970252
FENGYUN 1C DEB          
1 31313U 99025BPR 26116.72647744  .00000511  00000+0  24748-3 0  9997
2 31313  99.0103  28.6167 0045097 153.9742 206.3717 14.22469844989816
FENGYUN 1C DEB          
1 31314U 99025BPS 26114.25544706  .00000363  00000+0  24537-3 0  9999
2 31314  98.8314 109.7018 0078411 346.4936  13.4133 14.05061634626750
FENGYUN 1C DEB          
1 31319U 99025BPX 26116.65755831  .00000125  00000+0  15133-3 0  9991
2 31319  98.8189  10.6328 0170793  86.9450 303.6915 13.75877995955435
FENGYUN 1C DEB          
1 31321U 99025BPZ 26112.96996039  .00000147  00000+0  99944-4 0  9998
2 31321  98.7165 193.7002 0030296 163.4095 196.8076 14.13902527592386
FENGYUN 1C DEB          
1 31322U 99025BQA 26114.39764069  .00000083  00000+0  10620-3 0  9996
2 31322  98.5486 169.3423 0238507  15.1030  47.2049 13.73065536640966
FENGYUN 1C DEB          
1 31323U 99025BQB 26112.37014569  .00002249  00000+0  91172-3 0  9993
2 31323  99.4067 165.9745 0031836  68.5315 291.9254 14.28563469658453
FENGYUN 1C DEB          
1 31324U 99025BQC 26116.27012286  .00000220  00000+0  13686-3 0  9992
2 31324  99.1303  45.7216 0048890 284.6402  74.9352 14.14786127983887
FENGYUN 1C DEB          
1 31325U 99025BQD 26115.53494979  .00003203  00000+0  15479-2 0  9999
2 31325  98.9863 216.2200 0071298 198.8091 161.0447 14.17951101616731
FENGYUN 1C DEB          
1 31327U 99025BQF 26116.83005437  .00022777  00000+0  10331-2 0  9991
2 31327  98.9739 147.4964 0072249 279.8672  79.4406 15.18491422 21441
FENGYUN 1C DEB          
1 31328U 99025BQG 26116.64463055  .00000130  00000+0  64362-4 0  9999
2 31328  98.5031  91.9458 0104213 179.3094 180.8251 14.29016840993893
FENGYUN 1C DEB          
1 31329U 99025BQH 26116.27573936  .00010065  00000+0  16536-2 0  9995
2 31329  98.9063 119.2473 0053245  31.5398 328.8978 14.69903822 45907
FENGYUN 1C DEB          
1 31331U 99025BQK 26115.79901429  .00000231  00000+0  18156-3 0  9991
2 31331  98.8689 142.7683 0053961 169.4069 190.8246 14.00741065657333
FENGYUN 1C DEB          
1 31332U 99025BQL 26115.49232571  .00001139  00000+0  63501-3 0  9996
2 31332  98.7030 126.9613 0049338   6.1366 146.1527 14.12297099978596
FENGYUN 1C DEB          
1 31333U 99025BQM 26114.74385756  .00001197  00000+0  48419-3 0  9993
2 31333  98.4225 129.4333 0097334 356.2215   3.8221 14.27036576984884
FENGYUN 1C DEB          
1 31336U 99025BQQ 26116.63028545  .00000916  00000+0  29585-3 0  9997
2 31336  98.4414 174.9070 0093783  75.4410  76.4977 14.38991675997308
FENGYUN 1C DEB          
1 31338U 99025BQS 26116.28250445  .00005232  00000+0  23085-2 0  9990
2 31338  98.7141 319.6482 0073396  81.1934 279.7547 14.22295344655695
FENGYUN 1C DEB          
1 31339U 99025BQT 26116.01337663  .00001244  00000+0  67770-3 0  9999
2 31339  98.7052 133.9497 0072646 303.3340  56.0892 14.12644848975732
FENGYUN 1C DEB          
1 31341U 99025BQV 26116.42920264  .00004573  00000+0  10601-2 0  9990
2 31341  99.5384 181.4915 0050559 306.6523  69.8321 14.54867559995769
FENGYUN 1C DEB          
1 31342U 99025BQW 26116.14491673  .00000259  00000+0  97198-4 0  9992
2 31342  98.9564  82.6534 0111716 183.7848 176.2503 14.36910824998211
FENGYUN 1C DEB          
1 31345U 99025BQZ 26100.24132329  .00002749  00000+0  14620-2 0  9992
2 31345  98.0877 107.6827 0071809  99.2923 261.6381 14.12840395971750
FENGYUN 1C DEB          
1 31346U 99025BRA 26115.22410778  .00016788  00000+0  76263-3 0  9994
2 31346  98.8779 109.0878 0096662 290.3647  68.7218 15.16709582 15057
FENGYUN 1C DEB          
1 31348U 99025BRC 26114.86163163  .00002693  00000+0  95450-3 0  9997
2 31348  99.1362  78.2852 0035008  40.5986  15.7555 14.35066133981582
FENGYUN 1C DEB          
1 31350U 99025BRE 26116.77834620  .00001251  00000+0  44184-3 0  9992
2 31350  98.9719 298.9833 0067199  90.0691 270.8193 14.35286368721901
FENGYUN 1C DEB          
1 31351U 99025BRF 26110.17849147  .00000501  00000+0  31204-3 0  9997
2 31351  98.8099  98.5770 0093692  50.2800 310.6580 14.07111386631812
FENGYUN 1C DEB          
1 31353U 99025BRH 26091.62371467  .00001578  00000+0  47286-3 0  9994
2 31353  98.9976  25.6433 0228122 107.8717 254.7485 14.30310174981553
FENGYUN 1C DEB          
1 31357U 99025BRM 26116.83561600  .00000001  00000+0  20863-4 0  9992
2 31357  98.5924 148.7828 0048727 262.4301 271.7896 14.18544001986193
FENGYUN 1C DEB          
1 31361U 99025BRR 26114.86858679  .00000166  00000+0  10073-3 0  9996
2 31361  98.5699  90.3794 0045973  47.4628 313.0415 14.17826903984507
FENGYUN 1C DEB          
1 31362U 99025BRS 26116.95328748  .00000250  00000+0  14413-3 0  9994
2 31362  98.6615 112.8234 0019361  69.0357 291.2888 14.17479808984911
FENGYUN 1C DEB          
1 31364U 99025BRU 26116.29054540  .00006280  00000+0  30593-2 0  9994
2 31364  99.2650 246.1383 0094140 130.0791 230.8684 14.16189794967807
FENGYUN 1C DEB          
1 31365U 99025BRV 26116.73232067  .00006706  00000+0  19676-2 0  9998
2 31365  98.6659 209.0636 0042338 175.2280 184.9322 14.43624805985754
FENGYUN 1C DEB          
1 31367U 99025BRX 26115.20757508  .00001611  00000+0  42104-3 0  9996
2 31367  98.7369  18.9817 0097577 334.6818 176.9644 14.48099099  3773
FENGYUN 1C DEB          
1 31369U 99025BRZ 26115.22489557  .00000381  00000+0  19821-3 0  9999
2 31369  98.6355  98.0526 0053953 273.8322 100.9972 14.19577140662216
FENGYUN 1C DEB          
1 31370U 99025BSA 26116.46714535  .00000406  00000+0  25377-3 0  9996
2 31370  98.7581 117.8449 0032629 275.9224  83.8228 14.09889308981921
FENGYUN 1C DEB          
1 31371U 99025BSB 26116.33512499  .00000723  00000+0  46419-3 0  9990
2 31371  98.7480 149.6316 0076906 228.2961 131.1610 14.04853754976366
FENGYUN 1C DEB          
1 31372U 99025BSC 26116.71979845  .00003379  00000+0  13814-2 0  9997
2 31372  99.3789 122.4350 0034190  52.3744 308.0530 14.27685111977763
FENGYUN 1C DEB          
1 31374U 99025BSE 26110.20770561  .00003750  00000+0  11788-2 0  9992
2 31374  99.6241 261.4669 0136776 335.9483  23.5350 14.35954770978951
FENGYUN 1C DEB          
1 31376U 99025BSG 26116.75838636  .00008811  00000+0  16369-2 0  9991
2 31376  98.8364  47.5191 0046007 210.1892 149.6657 14.64752018  1149
FENGYUN 1C DEB          
1 31378U 99025BSJ 26108.20813378  .00000496  00000+0  47566-3 0  9995
2 31378 100.7500  19.3049 0167863 239.5726 118.8743 13.80333406959688
FENGYUN 1C DEB          
1 31381U 99025BSM 26116.50799412  .00001056  00000+0  29556-3 0  9995
2 31381  98.4792 203.2047 0195771 349.6602  10.0584 14.37645383993367
FENGYUN 1C DEB          
1 31383U 99025BSP 26115.46217468  .00000949  00000+0  57632-3 0  9993
2 31383  99.0492 182.4098 0106761 305.4629  68.7762 14.06018255972483
FENGYUN 1C DEB          
1 31384U 99025BSQ 26116.84658713  .00007894  00000+0  31301-2 0  9999
2 31384  98.4700  75.6131 0436338  29.4471  23.2306 13.87658772948973
FENGYUN 1C DEB          
1 31385U 99025BSR 26116.07251392  .00000361  00000+0  10882-3 0  9991
2 31385  98.9487 218.2098 0133574  16.0630 159.8279 14.44205379  5540
FENGYUN 1C DEB          
1 31386U 99025BSS 26116.48779981  .00002025  00000+0  15251-2 0  9999
2 31386  98.4357 123.2772 0194345 274.3309  83.5666 13.86804865957292
FENGYUN 1C DEB          
1 31387U 99025BST 26116.65328154  .00000387  00000+0  17439-3 0  9991
2 31387  99.1524   3.5404 0241652 151.4088 210.0585 14.13738761982031
FENGYUN 1C DEB          
1 31388U 99025BSU 26116.74138154  .00000105  00000+0  86909-4 0  9998
2 31388  98.8182 106.3782 0046848 180.8030   0.1039 14.07503124983402
FENGYUN 1C DEB          
1 31389U 99025BSV 26116.44699944  .00026773  00000+0  46440-2 0  9998
2 31389  99.0451 300.0579 0027914 133.1341 257.9654 14.67931399984693
FENGYUN 1C DEB          
1 31410U 99025BSW 26115.97309822  .00002284  00000+0  61489-3 0  9995
2 31410  98.8514 288.0988 0108607 244.7173 268.0645 14.45610136996904
FENGYUN 1C DEB          
1 31411U 99025BSX 26114.44878319  .00000690  00000+0  27914-3 0  9993
2 31411  98.6473 179.6470 0100587 226.1080 149.8045 14.28272943963745
FENGYUN 1C DEB          
1 31412U 99025BSY 26114.78254342  .00001557  00000+0  86849-3 0  9990
2 31412  98.5581  57.2225 0081820 316.7970  42.6802 14.10639935628676
FENGYUN 1C DEB          
1 31415U 99025BTB 26115.17446675  .00003041  00000+0  11359-2 0  9992
2 31415  99.6580  86.8308 0063548  55.6409 305.0760 14.31612621647398
FENGYUN 1C DEB          
1 31416U 99025BTC 26116.42721081  .00000844  00000+0  25208-3 0  9996
2 31416  99.0280 179.3218 0132709 213.0575 146.2266 14.40947652674591
FENGYUN 1C DEB          
1 31420U 99025BTG 26114.63641841  .00000869  00000+0  25300-3 0  9997
2 31420  97.5467   2.2510 0133657 278.8829 109.7069 14.41311633669087
FENGYUN 1C DEB          
1 31422U 99025BTJ 26116.78397963  .00000408  00000+0  25564-3 0  9991
2 31422  98.7670 115.1889 0033040 278.3240 257.3296 14.09803556975646
FENGYUN 1C DEB          
1 31423U 99025BTK 26115.67656521  .00000196  00000+0  10519-3 0  9995
2 31423  98.6003  98.2615 0036639 164.5889 195.6414 14.23072686988734
FENGYUN 1C DEB          
1 31424U 99025BTL 26112.35310795  .00000120  00000+0  89462-4 0  9999
2 31424  98.4601 153.4577 0094704  93.7724 267.4282 14.08469285650090
